STARS (KUKAI)           
1 33498U 09002G   26133.36251402  .00001703  00000+0  15939-3 0  9996
2 33498  98.1531  79.2616 0007065 289.8991  70.1467 14.95501173933276
KKS-1 (KISEKI)          
1 33499U 09002H   26133.51037228  .00000796  00000+0  10474-3 0  9992
2 33499  98.1195  55.4055 0009019  49.6450 310.5549 14.83030081931057
UK-DMC 2                
1 35683U 09041C   26133.51638019  .00000010  00000+0  85654-5 0  9990
2 35683  97.8778 269.3418 0001671  81.0883 279.0516 14.75970201901454
OCEANSAT-2              
1 35931U 09051A   26133.52882372  .00000087  00000+0  85288-4 0  9997
2 35931  98.2298 123.8435 0015124 339.3725  20.6829 13.99648493874486
SWISSCUBE               
1 35932U 09051B   26133.20649609  .00000594  00000+0  12720-3 0  9990
2 35932  98.4058  40.4838 0006178 333.2483  26.8399 14.62410948884043
BEESAT-1                
1 35933U 09051C   26133.26632221  .00000494  00000+0  10908-3 0  9994
2 35933  98.3987  40.2528 0005036 351.2715   8.8397 14.61660725884089
ITUPSAT1                
1 35935U 09051E   26133.15818821  .00000453  00000+0  10367-3 0  9990
2 35935  98.4072  39.3718 0007440 358.3068   1.8105 14.60385418883628
DMSP 5D-3 F18 (USA 210) 
1 35951U 09057A   26133.49002006  .00000211  00000+0  13216-3 0  9999
2 35951  98.9026 114.3384 0011005 356.1778   3.9309 14.14876425854684
PROBA-2                 
1 36037U 09059B   26133.37110247  .00000111  00000+0  36373-4 0  9990
2 36037  98.2449 317.2074 0013927  33.3398 326.8674 14.54847092876463
YAOGAN-7                
1 36110U 09069A   26133.29073722  .00000262  00000+0  43542-4 0  9993
2 36110  98.0115  19.3664 0025256 148.9732 211.2976 14.77973270884476
XIWANG-1 (HOPE-1)       
1 36122U 09072B   26133.51228545 -.00000113  00000+0 -17904-3 0  9999
2 36122 100.4002  87.9017 0007090 317.6849  42.3717 13.16438721788440
COSMOS 2463             
1 36519U 10017A   26133.38867617  .00000041  00000+0  29278-4 0  9990
2 36519  82.9588 275.2752 0035220 225.0270 163.5289 13.71663325803165
CARTOSAT-2B             
1 36795U 10035A   26133.48916925  .00000331  00000+0  52343-4 0  9995
2 36795  97.9982 184.2558 0010331 308.0563  51.9715 14.78615467854725
TISAT 1                 
1 36799U 10035E   26133.34624792  .00012278  00000+0  42092-3 0  9994
2 36799  98.0691  76.8483 0003488  52.2159 307.9396 15.30347916862374
YAOGAN-10               
1 36834U 10038A   26133.53958328  .00001240  00000+0  15089-3 0  9996
2 36834  97.9008 157.2200 0001534  90.3425  65.4465 14.85240252852066
SHIJIAN-6 04B (SJ-6 04B)
1 37180U 10051B   26133.45161355  .00000011  00000+0  59140-5 0  9996
2 37180  97.8733 138.5090 0012608  63.9340 296.3179 14.99260543850470
FENGYUN 3B              
1 37214U 10059A   26133.52508861  .00000054  00000+0  51218-4 0  9991
2 37214  98.9651 179.3879 0020988 286.1405 211.2735 14.14832960802520
COSMO-SKYMED 4          
1 37216U 10060A   26133.47330667  .00000595  00000+0  81249-4 0  9993
2 37216  97.8891 317.5765 0001369  85.0642 275.0727 14.82155402839429
O/OREOS (USA 219)       
1 37224U 10062C   26133.43699340  .00001113  00000+0  11130-3 0  9994
2 37224  71.9683 159.0442 0013028 138.9020 221.3134 14.93593522111457
RESOURCESAT-2           
1 37387U 11015A   26133.46076124  .00000041  00000+0  38955-4 0  9999
2 37387  98.7654 201.1393 0011167   3.9944 356.1320 14.21604338781247
YOUTHSAT                
1 37388U 11015B   26133.43463911  .00000111  00000+0  64217-4 0  9999
2 37388  98.3667 109.0605 0015765  84.3831  78.4762 14.25615015782687
APRIZESAT 6             
1 37793U 11044F   26133.26587323  .00000343  00000+0  56100-4 0  9995
2 37793  98.2385  43.0503 0042676 195.9977 281.9310 14.76866079791996
JUGNU                   
1 37839U 11058B   26133.21996584  .00000382  00000+0  60057-4 0  9998
2 37839  19.9589 160.8629 0018749  50.6973  19.1957 14.13766034754074
SRMSAT                  
1 37841U 11058D   26133.43846406  .00000365  00000+0  54247-4 0  9997
2 37841  19.9724 269.8009 0011672 181.4461 226.2347 14.11567807752902
SUOMI NPP               
1 37849U 11061A   26133.52033171  .00000042  00000+0  40797-4 0  9993
2 37849  98.7941  74.6366 0002835  73.4612 286.6875 14.19509747753525
YAOGAN-12               
1 37875U 11066B   26133.52018920  .00006479  00000+0  25325-3 0  9991
2 37875  97.1177 173.7254 0009553   0.4571 359.6675 15.26140186806753
