OBJECT_NAME,OBJECT_ID,EPOCH,MEAN_MOTION,ECCENTRICITY,INCLINATION,RA_OF_ASC_NODE,ARG_OF_PERICENTER,MEAN_ANOMALY,EPHEMERIS_TYPE,CLASSIFICATION_TYPE,NORAD_CAT_ID,ELEMENT_SET_NO,REV_AT_EPOCH,BSTAR,MEAN_MOTION_DOT,MEAN_MOTION_DDOT
STARS (KUKAI),2009-002G,2026-05-13T08:42:01.211328,14.95501173,.0007065,98.1531,79.2616,289.8991,70.1467,0,U,33498,999,93327,.15939E-3,.1703E-4,0
KKS-1 (KISEKI),2009-002H,2026-05-13T12:14:56.164992,14.83030081,.0009019,98.1195,55.4055,49.6450,310.5549,0,U,33499,999,93105,.10474E-3,.796E-5,0
UK-DMC 2,2009-041C,2026-05-13T12:23:35.248416,14.75970201,.0001671,97.8778,269.3418,81.0883,279.0516,0,U,35683,999,90145,.85654E-5,.1E-6,0
OCEANSAT-2,2009-051A,2026-05-13T12:41:30.369408,13.99648493,.0015124,98.2298,123.8435,339.3725,20.6829,0,U,35931,999,87448,.85288E-4,.87E-6,0
SWISSCUBE,2009-051B,2026-05-13T04:57:21.262176,14.62410948,.0006178,98.4058,40.4838,333.2483,26.8399,0,U,35932,999,88404,.1272E-3,.594E-5,0
BEESAT-1,2009-051C,2026-05-13T06:23:30.238944,14.61660725,.0005036,98.3987,40.2528,351.2715,8.8397,0,U,35933,999,88408,.10908E-3,.494E-5,0
ITUPSAT1,2009-051E,2026-05-13T03:47:47.461344,14.60385418,.000744,98.4072,39.3718,358.3068,1.8105,0,U,35935,999,88362,.10367E-3,.453E-5,0
DMSP 5D-3 F18 (USA 210),2009-057A,2026-05-13T11:45:37.733184,14.14876425,.0011005,98.9026,114.3384,356.1778,3.9309,0,U,35951,999,85468,.13216E-3,.211E-5,0
PROBA-2,2009-059B,2026-05-13T08:54:23.253408,14.54847092,.0013927,98.2449,317.2074,33.3398,326.8674,0,U,36037,999,87646,.36373E-4,.111E-5,0
YAOGAN-7,2009-069A,2026-05-13T06:58:39.695808,14.77973270,.0025256,98.0115,19.3664,148.9732,211.2976,0,U,36110,999,88447,.43542E-4,.262E-5,0
XIWANG-1 (HOPE-1),2009-072B,2026-05-13T12:17:41.462880,13.16438721,.000709,100.4002,87.9017,317.6849,42.3717,0,U,36122,999,78844,-.17904E-3,-.113E-5,0
COSMOS 2463,2010-017A,2026-05-13T09:19:41.621088,13.71663325,.003522,82.9588,275.2752,225.0270,163.5289,0,U,36519,999,80316,.29278E-4,.41E-6,0
CARTOSAT-2B,2010-035A,2026-05-13T11:44:24.223200,14.78615467,.0010331,97.9982,184.2558,308.0563,51.9715,0,U,36795,999,85472,.52343E-4,.331E-5,0
TISAT 1,2010-035E,2026-05-13T08:18:35.820288,15.30347916,.0003488,98.0691,76.8483,52.2159,307.9396,0,U,36799,999,86237,.42092E-3,.12278E-3,0
YAOGAN-10,2010-038A,2026-05-13T12:56:59.995392,14.85240252,.0001534,97.9008,157.2200,90.3425,65.4465,0,U,36834,999,85206,.15089E-3,.124E-4,0
SHIJIAN-6 04B (SJ-6 04B),2010-051B,2026-05-13T10:50:19.410720,14.99260543,.0012608,97.8733,138.5090,63.9340,296.3179,0,U,37180,999,85047,.5914E-5,.11E-6,0
FENGYUN 3B,2010-059A,2026-05-13T12:36:07.655904,14.14832960,.0020988,98.9651,179.3879,286.1405,211.2735,0,U,37214,999,80252,.51218E-4,.54E-6,0
COSMO-SKYMED 4,2010-060A,2026-05-13T11:21:33.696288,14.82155402,.0001369,97.8891,317.5765,85.0642,275.0727,0,U,37216,999,83942,.81249E-4,.595E-5,0
O/OREOS (USA 219),2010-062C,2026-05-13T10:29:16.229760,14.93593522,.0013028,71.9683,159.0442,138.9020,221.3134,0,U,37224,999,11145,.1113E-3,.1113E-4,0
RESOURCESAT-2,2011-015A,2026-05-13T11:03:29.771136,14.21604338,.0011167,98.7654,201.1393,3.9944,356.1320,0,U,37387,999,78124,.38955E-4,.41E-6,0
YOUTHSAT,2011-015B,2026-05-13T10:25:52.819104,14.25615015,.0015765,98.3667,109.0605,84.3831,78.4762,0,U,37388,999,78268,.64217E-4,.111E-5,0
APRIZESAT 6,2011-044F,2026-05-13T06:22:51.447072,14.76866079,.0042676,98.2385,43.0503,195.9977,281.9310,0,U,37793,999,79199,.561E-4,.343E-5,0
JUGNU,2011-058B,2026-05-13T05:16:45.048576,14.13766034,.00187492,19.9589,160.8629,50.6973,19.1957,0,U,37839,999,75407,.60056786E-4,.382E-5,0
SRMSAT,2011-058D,2026-05-13T10:31:23.294784,14.11567807,.0011672,19.9724,269.8009,181.4461,226.2347,0,U,37841,999,75290,.54247E-4,.365E-5,0
SUOMI NPP,2011-061A,2026-05-13T12:29:16.659744,14.19509747,.0002835,98.7941,74.6366,73.4612,286.6875,0,U,37849,999,75352,.40797E-4,.42E-6,0
YAOGAN-12,2011-066B,2026-05-13T12:29:04.346880,15.26140186,.0009553,97.1177,173.7254,0.4571,359.6675,0,U,37875,999,80675,.25325E-3,.6479E-4,0
